ONEWEB-0584             
1 54651U 22166K   24006.70123528  .00000012  00000+0 -19527-5 0  9990
2 54651  87.9230  61.6363 0001438  97.8989 262.2308 13.21825223 53610
ONEWEB-0585             
1 54652U 22166L   24006.65077014  .00000046  00000+0  80452-4 0  9993
2 54652  87.9233  61.6512 0001951 107.4570 252.6777 13.21824828 53617
ONEWEB-0586             
1 54653U 22166M   24006.66338769 -.00000537  00000+0 -13306-2 0  9991
2 54653  87.9226  61.6744 0001517 104.5025 255.6277 13.21828435 53614
ONEWEB-0587             
1 54654U 22166N   24006.67286090 -.00000018  00000+0 -74836-4 0  9993
2 54654  87.9226  61.6300 0002203 101.3377 258.8004 13.21823373 53777
ONEWEB-0589             
1 54655U 22166P   24006.66023931  .00000013  00000+0 -69809-6 0  9996
2 54655  87.9236  61.6563 0000896  79.8908 280.2327 13.21827057 53630
ONEWEB-0590             
1 54656U 22166Q   24006.68390652 -.00000041  00000+0 -13119-3 0  9998
2 54656  87.9234  61.6536 0002013  91.9681 268.1683 13.21822709 53623
ONEWEB-0591             
1 54657U 22166R   24006.69650231 -.00000023  00000+0 -87553-4 0  9996
2 54657  87.9236  61.6543 0001635  96.3593 263.7727 13.21826146 53656
ONEWEB-0592             
1 54658U 22166S   24006.69967104  .00000060  00000+0  11338-3 0  9993
2 54658  87.9224  61.6255 0001540  92.5292 267.6018 13.21826337 53538
